[
    {
        "Altitude(m)": 707046.8439567029,
        "Argument of Periapsis(deg)": 0.0034170363559881197,
        "Eccentricity": 0.0,
        "Inclination(deg)": 45.0,
        "Latitude(deg)": 43.98422702767388,
        "Longitude(deg)": 11.055344080279152,
        "Mean Anomaly(deg)": 101.64176499424424,
        "RAAN(deg)": 4.9967744175625395,
        "Satellite Name": "Constellation 1 28",
        "Satellite Number": 28,
        "Semi-Major Axis(m)": 7083131.272910544,
        "Time(s)": 57
    },
    {
        "Altitude(m)": 707044.138635017,
        "Argument of Periapsis(deg)": 0.003476984362233526,
        "Eccentricity": 0.0,
        "Inclination(deg)": 45.0,
        "Latitude(deg)": 43.97214788445737,
        "Longitude(deg)": 11.133738630613992,
        "Mean Anomaly(deg)": 101.70246613449413,
        "RAAN(deg)": 4.996717828396969,
        "Satellite Name": "Constellation 1 28",
        "Satellite Number": 28,
        "Semi-Major Axis(m)": 7083131.272910544,
        "Time(s)": 58
    },
    {
        "Altitude(m)": 707041.4202374201,
        "Argument of Periapsis(deg)": 0.003536932368478932,
        "Eccentricity": 0.0,
        "Inclination(deg)": 45.0,
        "Latitude(deg)": 43.960009193940955,
        "Longitude(deg)": 11.21209951674497,
        "Mean Anomaly(deg)": 101.76316727474403,
        "RAAN(deg)": 4.9966612392314,
        "Satellite Name": "Constellation 1 28",
        "Satellite Number": 28,
        "Semi-Major Axis(m)": 7083131.272910544,
        "Time(s)": 59
    },
    {
        "Altitude(m)": 707038.6887799538,
        "Argument of Periapsis(deg)": 0.003596880374724337,
        "Eccentricity": 0.0,
        "Inclination(deg)": 45.0,
        "Latitude(deg)": 43.947811005112946,
        "Longitude(deg)": 11.290426938224716,
        "Mean Anomaly(deg)": 101.82386841499394,
        "RAAN(deg)": 4.99660465006583,
        "Satellite Name": "Constellation 1 28",
        "Satellite Number": 28,
        "Semi-Major Axis(m)": 7083131.272910544,
        "Time(s)": 60
    },
    {
        "Altitude(m)": 707035.9442787387,
        "Argument of Periapsis(deg)": 0.0036568283809697427,
        "Eccentricity": 0.0,
        "Inclination(deg)": 45.0,
        "Latitude(deg)": 43.93555336715021,
        "Longitude(deg)": 11.3687205908328,
        "Mean Anomaly(deg)": 101.88456955524383,
        "RAAN(deg)": 4.996548060900261,
        "Satellite Name": "Constellation 1 28",
        "Satellite Number": 28,
        "Semi-Major Axis(m)": 7083131.272910544,
        "Time(s)": 61
    },
    {
        "Altitude(m)": 707033.186749965,
        "Argument of Periapsis(deg)": 0.003716776387215149,
        "Eccentricity": 0.0,
        "Inclination(deg)": 45.0,
        "Latitude(deg)": 43.9232363294183,
        "Longitude(deg)": 11.446980338965515,
        "Mean Anomaly(deg)": 101.94527069549373,
        "RAAN(deg)": 4.996491471734692,
        "Satellite Name": "Constellation 1 28",
        "Satellite Number": 28,
        "Semi-Major Axis(m)": 7083131.272910544,
        "Time(s)": 62
    },
    {
        "Altitude(m)": 707030.4162099155,
        "Argument of Periapsis(deg)": 0.003776724393460554,
        "Eccentricity": 0.0,
        "Inclination(deg)": 45.0,
        "Latitude(deg)": 43.91085994147039,
        "Longitude(deg)": 11.52520604753985,
        "Mean Anomaly(deg)": 102.00597183574362,
        "RAAN(deg)": 4.996434882569122,
        "Satellite Name": "Constellation 1 28",
        "Satellite Number": 28,
        "Semi-Major Axis(m)": 7083131.272910544,
        "Time(s)": 63
    },
    {
        "Altitude(m)": 707027.6326749448,
        "Argument of Periapsis(deg)": 0.003836672399705959,
        "Eccentricity": 0.0,
        "Inclination(deg)": 45.0,
        "Latitude(deg)": 43.898424253046336,
        "Longitude(deg)": 11.603397581994871,
        "Mean Anomaly(deg)": 102.06667297599353,
        "RAAN(deg)": 4.996378293403552,
        "Satellite Name": "Constellation 1 28",
        "Satellite Number": 28,
        "Semi-Major Axis(m)": 7083131.272910544,
        "Time(s)": 64
    },
    {
        "Altitude(m)": 707024.8361614805,
        "Argument of Periapsis(deg)": 0.003896620405951365,
        "Eccentricity": 0.0,
        "Inclination(deg)": 45.0,
        "Latitude(deg)": 43.88592931407181,
        "Longitude(deg)": 11.681554808292852,
        "Mean Anomaly(deg)": 102.12737411624343,
        "RAAN(deg)": 4.996321704237983,
        "Satellite Name": "Constellation 1 28",
        "Satellite Number": 28,
        "Semi-Major Axis(m)": 7083131.272910544,
        "Time(s)": 65
    },
    {
        "Altitude(m)": 707022.026686034,
        "Argument of Periapsis(deg)": 0.003956568412196771,
        "Eccentricity": 0.0,
        "Inclination(deg)": 45.0,
        "Latitude(deg)": 43.87337517465746,
        "Longitude(deg)": 11.75967759292048,
        "Mean Anomaly(deg)": 102.18807525649332,
        "RAAN(deg)": 4.996265115072413,
        "Satellite Name": "Constellation 1 28",
        "Satellite Number": 28,
        "Semi-Major Axis(m)": 7083131.272910544,
        "Time(s)": 66
    },
    {
        "Altitude(m)": 707019.204265194,
        "Argument of Periapsis(deg)": 0.004016516418442176,
        "Eccentricity": 0.0,
        "Inclination(deg)": 45.0,
        "Latitude(deg)": 43.86076188509769,
        "Longitude(deg)": 11.837765634792865,
        "Mean Anomaly(deg)": 102.24877639674322,
        "RAAN(deg)": 4.9962085259068445,
        "Satellite Name": "Constellation 1 28",
        "Satellite Number": 28,
        "Semi-Major Axis(m)": 7083131.272910544,
        "Time(s)": 67
    },
    {
        "Altitude(m)": 707016.3689156207,
        "Argument of Periapsis(deg)": 0.004076464424687581,
        "Eccentricity": 0.0,
        "Inclination(deg)": 45.0,
        "Latitude(deg)": 43.84808949587095,
        "Longitude(deg)": 11.915819137643295,
        "Mean Anomaly(deg)": 102.30947753699313,
        "RAAN(deg)": 4.996151936741274,
        "Satellite Name": "Constellation 1 28",
        "Satellite Number": 28,
        "Semi-Major Axis(m)": 7083131.272910544,
        "Time(s)": 68
    },
    {
        "Altitude(m)": 707013.5206540641,
        "Argument of Periapsis(deg)": 0.004136412430932987,
        "Eccentricity": 0.0,
        "Inclination(deg)": 45.0,
        "Latitude(deg)": 43.83535805763715,
        "Longitude(deg)": 11.993837801441424,
        "Mean Anomaly(deg)": 102.37017867724302,
        "RAAN(deg)": 4.996095347575705,
        "Satellite Name": "Constellation 1 28",
        "Satellite Number": 28,
        "Semi-Major Axis(m)": 7083131.272910544,
        "Time(s)": 69
    },
    {
        "Altitude(m)": 707010.6594973346,
        "Argument of Periapsis(deg)": 0.004196360437178394,
        "Eccentricity": 0.0,
        "Inclination(deg)": 45.0,
        "Latitude(deg)": 43.822567621237845,
        "Longitude(deg)": 12.071821494783258,
        "Mean Anomaly(deg)": 102.43087981749292,
        "RAAN(deg)": 4.996038758410135,
        "Satellite Name": "Constellation 1 28",
        "Satellite Number": 28,
        "Semi-Major Axis(m)": 7083131.272910544,
        "Time(s)": 70
    },
    {
        "Altitude(m)": 707007.7854623364,
        "Argument of Periapsis(deg)": 0.004256308443423799,
        "Eccentricity": 0.0,
        "Inclination(deg)": 45.0,
        "Latitude(deg)": 43.80971823769513,
        "Longitude(deg)": 12.149770086794753,
        "Mean Anomaly(deg)": 102.49158095774283,
        "RAAN(deg)": 4.995982169244566,
        "Satellite Name": "Constellation 1 28",
        "Satellite Number": 28,
        "Semi-Major Axis(m)": 7083131.272910544,
        "Time(s)": 71
    },
    {
        "Altitude(m)": 707004.8985660442,
        "Argument of Periapsis(deg)": 0.004316256449669204,
        "Eccentricity": 0.0,
        "Inclination(deg)": 45.0,
        "Latitude(deg)": 43.79680995821072,
        "Longitude(deg)": 12.227683447133064,
        "Mean Anomaly(deg)": 102.55228209799272,
        "RAAN(deg)": 4.995925580078997,
        "Satellite Name": "Constellation 1 28",
        "Satellite Number": 28,
        "Semi-Major Axis(m)": 7083131.272910544,
        "Time(s)": 72
    },
    {
        "Altitude(m)": 707001.998825507,
        "Argument of Periapsis(deg)": 0.00437620445591461,
        "Eccentricity": 0.0,
        "Inclination(deg)": 45.0,
        "Latitude(deg)": 43.7838428341651,
        "Longitude(deg)": 12.305561445987651,
        "Mean Anomaly(deg)": 102.61298323824262,
        "RAAN(deg)": 4.995868990913427,
        "Satellite Name": "Constellation 1 28",
        "Satellite Number": 28,
        "Semi-Major Axis(m)": 7083131.272910544,
        "Time(s)": 73
    },
    {
        "Altitude(m)": 706999.0862578563,
        "Argument of Periapsis(deg)": 0.004436152462160016,
        "Eccentricity": 0.0,
        "Inclination(deg)": 45.0,
        "Latitude(deg)": 43.770816917116264,
        "Longitude(deg)": 12.383403785984084,
        "Mean Anomaly(deg)": 102.67368437849252,
        "RAAN(deg)": 4.995812401747857,
        "Satellite Name": "Constellation 1 28",
        "Satellite Number": 28,
        "Semi-Major Axis(m)": 7083131.272910544,
        "Time(s)": 74
    },
    {
        "Altitude(m)": 706996.1608802954,
        "Argument of Periapsis(deg)": 0.0044961004684054215,
        "Eccentricity": 0.0,
        "Inclination(deg)": 45.0,
        "Latitude(deg)": 43.75773225880004,
        "Longitude(deg)": 12.461210674573701,
        "Mean Anomaly(deg)": 102.73438551874241,
        "RAAN(deg)": 4.995755812582288,
        "Satellite Name": "Constellation 1 28",
        "Satellite Number": 28,
        "Semi-Major Axis(m)": 7083131.272910544,
        "Time(s)": 75
    }
]